CUTE-1 (CO-55)          
1 27844U 03031E   25018.94629605  .00000761  00000+0  35197-3 0  9990
2 27844  98.6783  29.0499 0008770 235.3569 124.6784 14.23771748118484
CUBESAT XI-IV (CO-57)   
1 27848U 03031J   25018.54870243  .00000611  00000+0  28970-3 0  9991
2 27848  98.6811  28.7673 0008517 255.2569 104.7666 14.23138709118167
CUBESAT XI-V            
1 28895U 05043F   25018.85405336  .00003692  00000+0  62375-3 0  9999
2 28895  98.2261 161.7255 0015510  38.9423 321.2896 14.69943752 26111
CUTE-1.7+APD II (CO-65) 
1 32785U 08021C   25018.88560717  .00009009  00000+0  69757-3 0  9998
2 32785  97.7684 349.4352 0009144 349.9187  10.1853 15.01644718907794
AAUSAT-II               
1 32788U 08021F   25018.92642088  .00082658  00000+0  18798-2 0  9997
2 32788  97.6062   9.3574 0006897 107.1930 253.0072 15.42662685911262
CANX-2                  
1 32790U 08021H   25018.81456975  .00007737  00000+0  63527-3 0  9992
2 32790  97.7977 347.9163 0011747 342.1270  17.9538 14.99425527907558
SEEDS II (CO-66)        
1 32791U 08021J   25018.66343999  .00019620  00000+0  11193-2 0  9992
2 32791  97.7157 356.2577 0002750 323.3242  36.7799 15.12796840909077
SWISSCUBE               
1 35932U 09051B   25018.66070938  .00002614  00000+0  54712-3 0  9996
2 35932  98.4461 272.1717 0007613  20.8544 339.2964 14.60624216813991
BEESAT-1                
1 35933U 09051C   25018.65110739  .00002263  00000+0  48013-3 0  9997
2 35933  98.4394 272.7588 0006235  34.7437 325.4169 14.60143862814058
ITUPSAT1                
1 35935U 09051E   25018.62175896  .00001930  00000+0  42129-3 0  9993
2 35935  98.4494 272.3799 0008587  39.2193 320.9627 14.58989937813665
TISAT 1                 
1 36799U 10035E   25018.69968884  .00018077  00000+0  10844-2 0  9998
2 36799  98.0683 284.4474 0002328 200.3673 159.7463 15.11005906789501
AEROCUBE 4.5A           
1 38767U 12048K   25018.83389651  .00039918  00000+0  14146-2 0  9992
2 38767  64.6533 334.5384 0109012 312.4606  46.7342 15.23354409293157
AEROCUBE 4.5B           
1 38768U 12048L   25018.89213305  .00168267  00000+0  14604-2 0  9990
2 38768  64.6380 232.7192 0051908 298.3458  61.2460 15.66564378294655
STRAND-1                
1 39090U 13009E   25018.46388525  .00000764  00000+0  27421-3 0  9996
2 39090  98.3773 206.9081 0008327 336.2123  23.8678 14.36586969623143
BRITE-AUSTRIA           
1 39091U 13009F   25018.49203172  .00000475  00000+0  17753-3 0  9990
2 39091  98.3825 206.2064 0009932 343.2085  16.8772 14.36154241623167
NEE-01 PEGASO           
1 39151U 13018B   25018.89426788  .00006673  00000+0  71171-3 0  9991
2 39151  98.0542 144.9242 0014839  57.6053 302.6597 14.89114841634035
ESTCUBE 1               
1 39161U 13021C   25018.90507726  .00004000  00000+0  55217-3 0  9995
2 39161  97.8017  84.8153 0007442 247.2772 112.7654 14.78669054628946
POPACS 1                
1 39268U 13055D   25018.64520089  .00056626 -31182-6  69258-3 0  9992
2 39268  80.9763 259.1373 0311840 105.5943 257.9935 15.19109014592947
POPACS 2                
1 39269U 13055E   25018.36190711  .00036786  00000+0  76719-3 0  9999
2 39269  80.9992   3.8572 0506671  21.4971 340.6691 14.68252007588265
POPACS 3                
1 39270U 13055F   25018.55505690  .00015023  00000+0  39282-3 0  9993
2 39270  81.0042  62.2083 0601522 184.1385 175.4714 14.43570677563967
ZACUBE-1 (TSHEPISOSAT)  
1 39417U 13066B   25018.87447580  .00007877  00000+0  72745-3 0  9995
2 39417  97.7629 337.0518 0046771 162.9239 197.3568 14.94039315603737
WNISAT-1                
1 39423U 13066H   25018.76201985  .00001330  00000+0  25553-3 0  9990
2 39423  97.6658 201.7700 0168033  52.0323 309.5922 14.56493384591807
TRITON-1                
1 39427U 13066M   25018.87714128  .00005006  00000+0  65541-3 0  9999
2 39427  97.8415 296.3610 0098713 105.5330 255.6805 14.77418061598027
DELFI-N3XT              
1 39428U 13066N   25018.75933176  .00010903  00000+0  11981-2 0  9993
2 39428  97.8378 298.3348 0092006 105.9962 255.1411 14.84720520598000
GOMX-1                  
1 39430U 13066Q   25018.90402498  .00004969  00000+0  79225-3 0  9992
2 39430  97.7011 246.1807 0133656 285.8201  72.8302 14.66530442594458
CUBEBUG-2 (LO-74)       
1 39440U 13066AA  25018.81189096  .00008583  00000+0  91384-3 0  9995
2 39440  97.8361 324.7050 0063080 288.0104  71.4245 14.87695138600345
NEE-02 KRYSAOR          
1 39441U 13066AB  25018.76338273  .00006123  00000+0  72897-3 0  9999
2 39441  97.8440 319.4710 0069678 314.8169  44.7393 14.82968390599854
FUNCUBE-1 (AO-73)       
1 39444U 13066AE  25018.85151449  .00011526  00000+0  94833-3 0  9997
2 39444  97.7503 340.9355 0043984 138.2418 222.2175 14.98509189602330
UWE-3                   
1 39446U 13066AG  25018.81460704  .00008518  00000+0  85235-3 0  9995
2 39446  97.8083 330.9062 0054166 227.6574 132.0050 14.90565943600778
BRITE-CA1 (TORONTO)     
1 40020U 14033L   25018.91286442  .00002904  00000+0  45777-3 0  9996
2 40020  97.9030 155.0657 0082099 122.4216 238.4966 14.70933273566566
DUCHIFAT-1              
1 40021U 14033M   25018.92915867  .00028499  00000+0  13404-2 0  9996
2 40021  98.1013  21.8966 0012752  86.1851 274.0840 15.19464136576743
NANOSATC-BR1            
1 40024U 14033Q   25018.92938228  .00019082  00000+0  10993-2 0  9993
2 40024  98.0845   7.6887 0006224 141.5292 218.6381 15.12445586575759
QB50P1                  
1 40025U 14033R   25018.87572231  .00014646  00000+0  99435-3 0  9996
2 40025  98.0700 354.1229 0011599 165.7429 194.4127 15.06454610575278
QB50P2                  
1 40032U 14033Y   25018.85841401  .00012703  00000+0  90489-3 0  9992
2 40032  98.0272 344.1896 0010546 114.3214 245.9113 15.04702812575031
PERSEUS-M2              
1 40037U 14033AD  25018.91390403  .00004166  00000+0  40947-3 0  9993
2 40037  97.9446 316.9551 0011893 195.8364 164.2485 14.92653351573984
PERSEUS-M1              
1 40039U 14033AF  25018.35919811  .00004873  00000+0  47899-3 0  9991
2 40039  97.9210 311.8085 0011684 196.6544 163.4292 14.92557461573755
POLYITAN-1              
1 40042U 14033AJ  25018.89056297  .00021339  00000+0  12357-2 0  9990
2 40042  98.0941 359.8296 0012722 118.6823 241.5686 15.12180508575323
TIGRISAT                
1 40043U 14033AK  25018.91788054  .00004591  00000+0  57753-3 0  9998
2 40043  97.7141 179.0401 0052082 320.7335  39.0105 14.81575737569370
AEROCUBE 6A             
1 40045U 14033AM  25018.71922585  .00010350  00000+0  10822-2 0  9992
2 40045  97.6779 190.7044 0044986 291.9025  67.7412 14.89087254569807
AEROCUBE 6B             
1 40046U 14033AN  25018.41690650  .00012787  00000+0  13027-2 0  9991
2 40046  97.6757 189.3410 0043407 287.0928  72.5539 14.90125880569837
CANX-4                  
1 40055U 14034C   25018.63390727  .00002539  00000+0  34653-3 0  9991
2 40055  98.3761 228.4121 0012278 218.8738 141.1590 14.79547374568390
CANX-5                  
1 40056U 14034D   25018.84043776  .00002659  00000+0  36232-3 0  9992
2 40056  98.3764 228.6418 0012276 218.3832 141.6506 14.79560725559233
UKUBE-1                 
1 40074U 14037F   25018.81162315  .00015664  00000+0  12276-2 0  9994
2 40074  98.3739 329.3447 0002862  65.2908 294.8611 15.01081418571043
BRITE-PL2 (HEWELIUSZ)   
1 40119U 14049B   25018.91364052  .00004542  00000+0  46033-3 0  9992
2 40119  97.8852 124.0496 0015432  18.2292 341.9476 14.91327087564709
AEROCUBE 5C             
1 40965U 15058B   25018.50168451  .00008208  00000+0  69255-3 0  9996
2 40965  64.7688  58.8199 0183046 244.0450 114.1702 14.86608405288990
AEROCUBE 7              
1 40966U 15058C   25018.79042078  .00009808  00000+0  78150-3 0  9995
2 40966  64.7658  49.2696 0176022 243.7205 114.5730 14.89381692289168
FOX-1A (AO-85)          
1 40967U 15058D   25018.57807840  .00008694  00000+0  74996-3 0  9994
2 40967  64.7765  73.2383 0180403 239.5951 118.7224 14.86072162 36954
SINOD-D 1               
1 40968U 15058E   25018.86127255  .00011295  00000+0  91330-3 0  9994
2 40968  64.7766  62.5644 0171956 238.5676 119.8526 14.89231894 39876
SNAP-3 ALICE            
1 40970U 15058G   25018.30971075  .00033071  00000+0  16662-2 0  9993
2 40970  64.7680   4.7784 0123268 237.6667 121.2472 15.10558461 38109
LMRST-SAT               
1 40971U 15058H   25018.83385757  .00008522  00000+0  73393-3 0  9996
2 40971  64.7764  68.0458 0182085 240.9266 117.3503 14.85947464 36990
SNAP-3 EDDIE            
1 40972U 15058J   25018.92435365  .00031737  00000+0  15787-2 0  9994
2 40972  64.7654 355.7292 0123697 238.3805 120.5200 15.10959116 40301
PROPCUBE 3              
1 40973U 15058K   25018.48803905  .00010226  00000+0  83125-3 0  9997
2 40973  64.7703  54.6184 0177603 242.5726 115.7225 14.88441110 38020
BISONSAT                
1 40974U 15058L   25018.72674967  .00019176  00000+0  12103-2 0  9999
2 40974  64.7663  18.4253 0147591 240.5867 118.0450 15.00508150 37992
SNAP-3 JIMI             
1 40975U 15058M   25018.47737234  .00014001  00000+0  10272-2 0  9996
2 40975  64.7683  38.6105 0165084 241.7118 116.7254 14.93394844 37108
PROPCUBE 1 (FLORA)      
1 40976U 15058N   25018.87106157  .00008378  00000+0  74989-3 0  9991
2 40976  64.7755  84.6144 0181264 242.3057 115.9559 14.84644750 39778
SINOD-D 3               
1 40977U 15058P   25018.56864805  .00010993  00000+0  92329-3 0  9993
2 40977  64.7736  76.2774 0172960 241.7226 116.6338 14.87751685 38016
HORYU-4                 
1 41340U 16012D   25018.96189545  .00028654  00000+0  10146-2 0  9993
2 41340  30.9995 358.1704 0005833  21.6264 338.4625 15.27926323491046
RAVAN                   
1 41849U 16067B   25018.48541427  .00025937  00000+0  10733-2 0  9998
2 41849  98.0557 216.2865 0011019  15.1179 345.0383 15.23881835448655
CELTEE 1                
1 41850U 16067C   25018.47448828  .00010920  00000+0  64395-3 0  9990
2 41850  98.1064 206.0454 0001045 135.2387 224.8927 15.11758782447899
